Automated mail xmit by MAIL_REQUEST, PID=   84487 Sat Dec 31 01:39:11 2016
++++++++++++++++++++++++++++++++ (part 1 of 1)  +++++++++++++++++++++++++++++++

*******************************************************************************
 Revised: Oct 13, 2016     Spitzer Space Telescope (SST) / (Sun)            -79
                              http://spitzer.caltech.edu/

 Spitzer Space Telescope
  Launched: Aug 25, 2003
  Renamed : Dec 18, 2003 (formerly "SIRTF": Space Infrared Telescope Facility)

 EXTENDED MISSION (2009-present):
  Cryogen depletion is expected to occur in April 2009. A 2-year extended
  "warm" mission will continue operating the 3.6 and 4.5 micron channels on the
  IRAC instrument with expected sensitivity unchanged from performance in the
  cryogenic mission. The longer wavelength IRAC channels (5.6 and 8.0 microns)
  and the MIPS and IRS instruments will be unavailable.

 PRIME MISSION (2003-2009):
  Spitzer will obtain images and spectra by detecting infrared (heat) energy,
  having wavelengths of 3 and 180 microns, radiated by objects in space.  Most
  of this infrared radiation is blocked by the Earth's atmosphere and cannot be
  observed from the ground.  The telescope must be cooled to near absolute zero
  (-459 degrees F, or -273 degrees Celsius) to record infrared from distant
  regions of space without interference from the telescope's own heat.

 SPACECRAFT:
   0.85-meter telescope
   3 cryogenically-cooled science instruments
   2 solar panels composed of 392 solar cells, producing 427 Watts.
   Each solar cell is 5.5 x 6.5 cm. Each panel is 50% covered by solar cells,
    and 50% covered by optical reflectors to reduce panel temp to 330 K.
   Spitzer cannot point more than 120 degrees away from the sun and maintain
    adequate power levels.

 SPACECRAFT TRAJECTORY:
   Post-launch trajectory "sst_030825_161010_200101"

   This orbit solution is based on 2-way doppler tracking data through
   2016-Oct-05. The trajectory after that date is the nominal prediction.
*******************************************************************************


*******************************************************************************
Ephemeris / MAIL_REQUEST Sat Dec 31 01:39:10 2016 Pasadena, USA  / Horizons
*******************************************************************************
Target body name: Spitzer Space Telescope (-79)   {source: sst}
Center body name: Earth (399)                     {source: sst}
Center-site name: GEOCENTRIC
*******************************************************************************
Start time      : A.D. 2013-Jun-01 12:00:00.0000 UT
Stop  time      : A.D. 2015-Nov-02 10:00:00.0000 UT
Step-size       : 1440 minutes
*******************************************************************************
Target pole/equ : No model available
Target radii    : (unavailable)
Center geodetic : 0.00000000,0.00000000,0.0000000 {E-lon(deg),Lat(deg),Alt(km)}
Center cylindric: 0.00000000,0.00000000,0.0000000 {E-lon(deg),Dxy(km),Dz(km)}
Center pole/equ : High-precision EOP model        {East-longitude +}
Center radii    : 6378.1 x 6378.1 x 6356.8 km     {Equator, meridian, pole}
Target primary  : Earth
Vis. interferer : MOON (R_eq= 1737.400) km        {source: sst}
Rel. light bend : Sun, EARTH                      {source: sst}
Rel. lght bnd GM: 1.3271E+11, 3.9860E+05 km^3/s^2
Atmos refraction: NO (AIRLESS)
RA format       : HMS
Time format     : CAL
EOP file        : eop.161230.p170323
EOP coverage    : DATA-BASED 1962-JAN-20 TO 2016-DEC-30. PREDICTS-> 2017-MAR-22
Units conversion: 1 au= 149597870.700 km, c= 299792.458 km/s, 1 day= 86400.0 s
Table cut-offs 1: Elevation (-90.0deg=NO ),Airmass (>38.000=NO), Daylight (NO )
Table cut-offs 2: Solar Elongation (  0.0,180.0=NO ),Local Hour Angle( 0.0=NO )
**************************************************************************************
 Date__(UT)__HR:MN     R.A._(ICRF/J2000.0)_DEC            delta      deldot   1-way_LT
**************************************************************************************
$$SOE
 2014-Feb-28 12:00     01 51 12.69 +12 13 44.9 1.29038981239199   0.8261707  10.731845
 2014-Mar-01 12:00     01 54 57.41 +12 33 42.7 1.29086262962829   0.8094181  10.735777
 2014-Mar-02 12:00     01 58 42.69 +12 53 28.7 1.29132516789411   0.7921118  10.739624
 2014-Mar-03 12:00     02 02 28.56 +13 13 02.6 1.29177758949907   0.7744167  10.743387
 2014-Mar-04 12:00     02 06 15.00 +13 32 24.0 1.29221972116663   0.7565092  10.747064
 2014-Mar-05 12:00     02 10 02.04 +13 51 32.6 1.29265148307353   0.7385324  10.750655
 2014-Mar-06 12:00     02 13 49.67 +14 10 28.0 1.29307287372350   0.7206185  10.754159
 2014-Mar-07 12:00     02 17 37.90 +14 29 09.8 1.29348395683594   0.7028504  10.757578
 2014-Mar-08 12:00     02 21 26.74 +14 47 37.8 1.29388483712829   0.6852991  10.760912
 2014-Mar-09 12:00     02 25 16.19 +15 05 51.5 1.29427565420700   0.6680116  10.764162
 2014-Mar-10 12:00     02 29 06.27 +15 23 50.6 1.29465657255578   0.6510277  10.767330
 2014-Mar-11 12:00     02 32 56.97 +15 41 34.8 1.29502777307706   0.6343670  10.770418
 2014-Mar-12 12:00     02 36 48.29 +15 59 03.8 1.29538945118046   0.6180591  10.773426
 2014-Mar-13 12:00     02 40 40.25 +16 16 17.1 1.29574181754110   0.6021268  10.776356
 2014-Mar-14 12:00     02 44 32.85 +16 33 14.5 1.29608509378709   0.5865855  10.779211
 2014-Mar-15 12:00     02 48 26.09 +16 49 55.7 1.29641950908507   0.5714451  10.781992
 2014-Mar-16 12:00     02 52 19.98 +17 06 20.2 1.29674529432191   0.5566999  10.784702
 2014-Mar-17 12:00     02 56 14.51 +17 22 27.8 1.29706267340627   0.5423337  10.787341
 2014-Mar-18 12:00     03 00 09.70 +17 38 18.2 1.29737185538034   0.5283081  10.789913
 2014-Mar-19 12:00     03 04 05.54 +17 53 51.0 1.29767302060605   0.5145629  10.792417
 2014-Mar-20 12:00     03 08 02.03 +18 09 05.9 1.29796630937506   0.5010198  10.794857
 2014-Mar-21 12:00     03 11 59.19 +18 24 02.7 1.29825181077789   0.4875803  10.797231
 2014-Mar-22 12:00     03 15 57.01 +18 38 41.0 1.29852955285591   0.4741322  10.799541
 2014-Mar-23 12:00     03 19 55.49 +18 53 00.5 1.29879949511698   0.4605511  10.801786
 2014-Mar-24 12:00     03 23 54.63 +19 07 00.9 1.29906152427320   0.4467108  10.803965
 2014-Mar-25 12:00     03 27 54.43 +19 20 41.9 1.29931545433871   0.4324871  10.806077
 2014-Mar-26 12:00     03 31 54.89 +19 34 03.2 1.29956103157870   0.4177712  10.808120
 2014-Mar-27 12:00     03 35 56.00 +19 47 04.6 1.29979794649218   0.4024822  10.810090
 2014-Mar-28 12:00     03 39 57.76 +19 59 45.6 1.30002585451625   0.3865814  10.811985
 2014-Mar-29 12:00     03 44 00.15 +20 12 06.2 1.30024440381618   0.3700829  10.813803
 2014-Mar-30 12:00     03 48 03.18 +20 24 05.9 1.30045326554174   0.3530524  10.815540
 2014-Mar-31 12:00     03 52 06.82 +20 35 44.5 1.30065216385274   0.3356040  10.817194
 2014-Apr-01 12:00     03 56 11.06 +20 47 01.7 1.30084062583648   0.3178733  10.818762
 2014-Apr-02 12:00     04 00 15.89 +20 57 57.3 1.30101906925535   0.3000022  10.820246
 2014-Apr-03 12:00     04 04 21.30 +21 08 30.9 1.30118718225396   0.2821210  10.821644
 2014-Apr-04 12:00     04 08 27.25 +21 18 42.4 1.30134499285110   0.2643475  10.822956
 2014-Apr-05 12:00     04 12 33.75 +21 28 31.5 1.30149258988406   0.2467682  10.824184
 2014-Apr-06 12:00     04 16 40.77 +21 37 57.9 1.30163010677756   0.2294540  10.825328
 2014-Apr-07 12:00     04 20 48.29 +21 47 01.4 1.30175771347005   0.2124611  10.826389
 2014-Apr-08 12:00     04 24 56.29 +21 55 41.8 1.30187560907109   0.1958352  10.827369
 2014-Apr-09 12:00     04 29 04.76 +22 03 58.9 1.30198401917502   0.1796231  10.828271
 2014-Apr-10 12:00     04 33 13.68 +22 11 52.5 1.30208319407872   0.1638638  10.829096
 2014-Apr-11 12:00     04 37 23.01 +22 19 22.4 1.30217340701113   0.1485974  10.829846
 2014-Apr-12 12:00     04 41 32.76 +22 26 28.4 1.30225495355448   0.1338609  10.830524
 2014-Apr-13 12:00     04 45 42.88 +22 33 10.3 1.30232814872089   0.1196836  10.831133
 2014-Apr-14 12:00     04 49 53.37 +22 39 27.9 1.30239332122665   0.1060823  10.831675
 2014-Apr-15 12:00     04 54 04.20 +22 45 21.1 1.30245080381668   0.0930527  10.832153
 2014-Apr-16 12:00     04 58 15.36 +22 50 49.8 1.30250091813566   0.0805611  10.832570
 2014-Apr-17 12:00     05 02 26.81 +22 55 53.9 1.30254395843469   0.0685447  10.832928
 2014-Apr-18 12:00     05 06 38.55 +23 00 33.1 1.30258017352082   0.0569098  10.833229
 2014-Apr-19 12:00     05 10 50.55 +23 04 47.3 1.30260975035267   0.0455373  10.833475
 2014-Apr-20 12:00     05 15 02.78 +23 08 36.6 1.30263280186815   0.0342915  10.833667
 2014-Apr-21 12:00     05 19 15.24 +23 12 00.6 1.30264936025584   0.0230304  10.833804
 2014-Apr-22 12:00     05 23 27.89 +23 14 59.5 1.30265937743075   0.0116200  10.833888
 2014-Apr-23 12:00     05 27 40.72 +23 17 33.1 1.30266273133170  -0.0000605  10.833916
 2014-Apr-24 12:00     05 31 53.70 +23 19 41.3 1.30265923715157  -0.0121056  10.833887
 2014-Apr-25 12:00     05 36 06.81 +23 21 24.1 1.30264866470454  -0.0245775  10.833799
 2014-Apr-26 12:00     05 40 20.03 +23 22 41.4 1.30263075878401  -0.0374990  10.833650
 2014-Apr-27 12:00     05 44 33.31 +23 23 33.3 1.30260526312355  -0.0508520  10.833438
 2014-Apr-28 12:00     05 48 46.65 +23 23 59.6 1.30257194295967  -0.0645799  10.833161
 2014-Apr-29 12:00     05 53 00.01 +23 24 00.4 1.30253060589845  -0.0785956  10.832817
 2014-Apr-30 12:00     05 57 13.35 +23 23 35.7 1.30248111546488  -0.0927933  10.832405
 2014-May-01 12:00     06 01 26.66 +23 22 45.5 1.30242398471036  -0.1070604  10.831930
 2014-May-02 12:00     06 05 39.90 +23 21 29.9 1.30235803395634  -0.1212889  10.831381
 2014-May-03 12:00     06 09 53.04 +23 19 48.7 1.30228389987019  -0.1353814  10.830765
 2014-May-04 12:00     06 14 06.05 +23 17 42.2 1.30220168582133  -0.1492541  10.830081
 2014-May-05 12:00     06 18 18.91 +23 15 10.4 1.30211154003686  -0.1628352  10.829331
 2014-May-06 12:00     06 22 31.58 +23 12 13.3 1.30201364918847  -0.1760626  10.828517
